0 COSMOS 1378
1 13271U 82059A   13281.62944948  .00003976  00000-0  22942-3 0  3091
2 13271 082.4686 112.0923 0007336 302.7615 120.9178 15.12075251705527
0 COSMOS 1378
1 13271U 82059A   13282.68494788  .00004307  00000-0  24854-3 0  3105
2 13271 082.4689 111.0516 0007326 298.1307 107.5089 15.12089644705682
0 COSMOS 1378
1 13271U 82059A   13283.82069525  .00005947  00000-0  34372-3 0  3117
2 13271 082.4690 109.9316 0007297 293.8553 170.3591 15.12097411705856
0 COSMOS 1378
1 13271U 82059A   13286.20536478  .00004769  00000-0  27515-3 0  3132
2 13271 082.4691 107.5802 0007409 283.3106 193.8535 15.12118261706210
0 COSMOS 1378
1 13271U 82059A   13287.51679786  .00004980  00000-0  28730-3 0  3143
2 13271 082.4690 106.2871 0007724 277.6171 134.0079 15.12128929706413
0 COSMOS 1378
1 13271U 82059A   13288.84656390  .00006068  00000-0  35028-3 0  3154
2 13271 082.4690 104.9757 0007675 272.5109 173.3814 15.12145450706614
0 COSMOS 1378
1 13271U 82059A   13290.17522384  .00005779  00000-0  33337-3 0  3168
2 13271 082.4691 103.6653 0007757 267.3961 206.8121 15.12157614706815
0 COSMOS 1378
1 13271U 82059A   13291.48119565  .00005078  00000-0  29263-3 0  3172
2 13271 082.4694 102.3774 0007857 262.4236 116.7283 15.12171056707017
0 COSMOS 1378
1 13271U 82059A   13292.55041074  .00004966  00000-0  28607-3 0  3187
2 13271 082.4697 101.3232 0007922 258.5456 177.5557 15.12180813707178
0 COSMOS 1378
1 13271U 82059A   13293.81380713  .00005564  00000-0  32063-3 0  3190
2 13271 082.4700 100.0775 0007952 254.1482 215.3744 15.12189886707364
0 COSMOS 1378
1 13271U 82059A   13295.19139394  .00005794  00000-0  33385-3 0  3205
2 13271 082.4702 098.7192 0007972 249.4350 154.8052 15.12201317707571
